{
  "type": "FeatureCollection",
  "features": [
    {
      "type": "Feature",
      "properties": {
        "norad_id": 43706,
        "name": "BEIDOU-3 M17 (C36)",
        "group": "beidou",
        "lat": -8.437848372587696,
        "lon": 14.4721865961504,
        "alt_km": 21537.461030893683,
        "timestamp": "2025-12-21T20:41:08.227546+00:00",
        "meta_object_name": "BEIDOU-3 M17 (C36)",
        "meta_object_id": "2018-093A",
        "meta_epoch": "2025-12-20T12:04:20.840736",
        "meta_mean_motion": 1.86228485,
        "meta_eccentricity": 0.00060883,
        "meta_inclination": 54.1751,
        "meta_ra_of_asc_node": 188.3582,
        "meta_arg_of_pericenter": 307.8758,
        "meta_mean_anomaly": 51.559,
        "meta_ephemeris_type": 0,
        "meta_classification_type": "U",
        "meta_norad_cat_id": 43706,
        "meta_element_set_no": 999,
        "meta_rev_at_epoch": 4820,
        "meta_bstar": 0,
        "meta_mean_motion_dot": 9.7e-07,
        "meta_mean_motion_ddot": 0,
        "tle_line1": "1 43706U 18093A   25354.50301899  .00000097  00000+0  00000+0 0  9999",
        "tle_line2": "2 43706  54.1751 188.3582 0006088 307.8758  51.5590  1.86228485 48203"
      },
      "geometry": {
        "type": "Point",
        "coordinates": [
          14.4721865961504,
          -8.437848372587696
        ]
      }
    },
    {
      "type": "Feature",
      "properties": {
        "norad_id": 43707,
        "name": "BEIDOU-3 M18 (C37)",
        "group": "beidou",
        "lat": -52.08667331786456,
        "lon": 120.17100370543088,
        "alt_km": 21528.375229526257,
        "timestamp": "2025-12-21T20:41:08.227555+00:00",
        "meta_object_name": "BEIDOU-3 M18 (C37)",
        "meta_object_id": "2018-093B",
        "meta_epoch": "2025-12-20T21:39:28.587744",
        "meta_mean_motion": 1.86226757,
        "meta_eccentricity": 0.00062168,
        "meta_inclination": 54.1741,
        "meta_ra_of_asc_node": 188.3365,
        "meta_arg_of_pericenter": 353.7926,
        "meta_mean_anomaly": 6.2524,
        "meta_ephemeris_type": 0,
        "meta_classification_type": "U",
        "meta_norad_cat_id": 43707,
        "meta_element_set_no": 999,
        "meta_rev_at_epoch": 4821,
        "meta_bstar": 0,
        "meta_mean_motion_dot": 9.5e-07,
        "meta_mean_motion_ddot": 0,
        "tle_line1": "1 43707U 18093B   25354.90241421  .00000095  00000+0  00000+0 0  9996",
        "tle_line2": "2 43707  54.1741 188.3365 0006216 353.7926   6.2524  1.86226757 48217"
      },
      "geometry": {
        "type": "Point",
        "coordinates": [
          120.17100370543088,
          -52.08667331786456
        ]
      }
    },
    {
      "type": "Feature",
      "properties": {
        "norad_id": 44231,
        "name": "BEIDOU-2 G8 (C01)",
        "group": "beidou",
        "lat": 1.5759483731060522,
        "lon": -174.61617569349903,
        "alt_km": 35813.86335881262,
        "timestamp": "2025-12-21T20:41:08.227566+00:00",
        "meta_object_name": "BEIDOU-2 G8 (C01)",
        "meta_object_id": "2019-027A",
        "meta_epoch": "2025-12-19T12:14:23.449632",
        "meta_mean_motion": 1.00276563,
        "meta_eccentricity": 0.0008196,
        "meta_inclination": 1.6785,
        "meta_ra_of_asc_node": 74.7229,
        "meta_arg_of_pericenter": 258.5641,
        "meta_mean_anomaly": 83.1013,
        "meta_ephemeris_type": 0,
        "meta_classification_type": "U",
        "meta_norad_cat_id": 44231,
        "meta_element_set_no": 999,
        "meta_rev_at_epoch": 2427,
        "meta_bstar": 0,
        "meta_mean_motion_dot": -2.24e-06,
        "meta_mean_motion_ddot": 0,
        "tle_line1": "1 44231U 19027A   25353.50999363 -.00000224  00000+0  00000+0 0  9992",
        "tle_line2": "2 44231   1.6785  74.7229 0008196 258.5641  83.1013  1.00276563 24270"
      },
      "geometry": {
        "type": "Point",
        "coordinates": [
          -174.61617569349903,
          1.5759483731060522
        ]
      }
    },
    {
      "type": "Feature",
      "properties": {
        "norad_id": 44337,
        "name": "BEIDOU-3 IGSO-2 (C39)",
        "group": "beidou",
        "lat": 0.11261265044568212,
        "lon": 160.48214101825133,
        "alt_km": 35934.5983052302,
        "timestamp": "2025-12-21T20:41:08.227576+00:00",
        "meta_object_name": "BEIDOU-3 IGSO-2 (C39)",
        "meta_object_id": "2019-035A",
        "meta_epoch": "2025-12-21T14:41:08.547936",
        "meta_mean_motion": 1.00268657,
        "meta_eccentricity": 0.00376681,
        "meta_inclination": 55.2285,
        "meta_ra_of_asc_node": 160.4234,
        "meta_arg_of_pericenter": 202.252,
        "meta_mean_anomaly": 67.4255,
        "meta_ephemeris_type": 0,
        "meta_classification_type": "U",
        "meta_norad_cat_id": 44337,
        "meta_element_set_no": 999,
        "meta_rev_at_epoch": 2388,
        "meta_bstar": 0,
        "meta_mean_motion_dot": -7.3e-07,
        "meta_mean_motion_ddot": 0,
        "tle_line1": "1 44337U 19035A   25355.61190449 -.00000073  00000+0  00000+0 0  9992",
        "tle_line2": "2 44337  55.2285 160.4234 0037668 202.2520  67.4255  1.00268657 23888"
      },
      "geometry": {
        "type": "Point",
        "coordinates": [
          160.48214101825133,
          0.11261265044568212
        ]
      }
    },
    {
      "type": "Feature",
      "properties": {
        "norad_id": 44542,
        "name": "BEIDOU-3 M24 (C46)",
        "group": "beidou",
        "lat": -42.21399803022519,
        "lon": 49.278088352098194,
        "alt_km": 21556.32102432174,
        "timestamp": "2025-12-21T20:41:08.227587+00:00",
        "meta_object_name": "BEIDOU-3 M24 (C46)",
        "meta_object_id": "2019-061A",
        "meta_epoch": "2025-12-20T23:21:37.865088",
        "meta_mean_motion": 1.86229471,
        "meta_eccentricity": 0.0009592,
        "meta_inclination": 54.4004,
        "meta_ra_of_asc_node": 188.7381,
        "meta_arg_of_pericenter": 25.7188,
        "meta_mean_anomaly": 334.3821,
        "meta_ephemeris_type": 0,
        "meta_classification_type": "U",
        "meta_norad_cat_id": 44542,
        "meta_element_set_no": 999,
        "meta_rev_at_epoch": 4247,
        "meta_bstar": 0,
        "meta_mean_motion_dot": 9.6e-07,
        "meta_mean_motion_ddot": 0,
        "tle_line1": "1 44542U 19061A   25354.97335492  .00000096  00000+0  00000+0 0  9990",
        "tle_line2": "2 44542  54.4004 188.7381 0009592  25.7188 334.3821  1.86229471 42471"
      },
      "geometry": {
        "type": "Point",
        "coordinates": [
          49.278088352098194,
          -42.21399803022519
        ]
      }
    },
    {
      "type": "Feature",
      "properties": {
        "norad_id": 44543,
        "name": "BEIDOU-3 M23 (C45)",
        "group": "beidou",
        "lat": 25.062292502207058,
        "lon": -10.904943407186,
        "alt_km": 21534.573555567888,
        "timestamp": "2025-12-21T20:41:08.227597+00:00",
        "meta_object_name": "BEIDOU-3 M23 (C45)",
        "meta_object_id": "2019-061B",
        "meta_epoch": "2025-12-21T09:48:50.565312",
        "meta_mean_motion": 1.86227721,
        "meta_eccentricity": 0.00060743,
        "meta_inclination": 54.3995,
        "meta_ra_of_asc_node": 188.6918,
        "meta_arg_of_pericenter": 25.4235,
        "meta_mean_anomaly": 179.4087,
        "meta_ephemeris_type": 0,
        "meta_classification_type": "U",
        "meta_norad_cat_id": 44543,
        "meta_element_set_no": 999,
        "meta_rev_at_epoch": 4248,
        "meta_bstar": 0,
        "meta_mean_motion_dot": 9.5e-07,
        "meta_mean_motion_ddot": 0,
        "tle_line1": "1 44543U 19061B   25355.40891858  .00000095  00000+0  00000+0 0  9992",
        "tle_line2": "2 44543  54.3995 188.6918 0006074  25.4235 179.4087  1.86227721 42486"
      },
      "geometry": {
        "type": "Point",
        "coordinates": [
          -10.904943407186,
          25.062292502207058
        ]
      }
    },
    {
      "type": "Feature",
      "properties": {
        "norad_id": 44793,
        "name": "BEIDOU-3 M22 (C44)",
        "group": "beidou",
        "lat": -13.70961468935309,
        "lon": -64.1228133673798,
        "alt_km": 21517.209015357454,
        "timestamp": "2025-12-21T20:41:08.227607+00:00",
        "meta_object_name": "BEIDOU-3 M22 (C44)",
        "meta_object_id": "2019-078A",
        "meta_epoch": "2025-12-21T08:24:25.549344",
        "meta_mean_motion": 1.86232186,
        "meta_eccentricity": 0.00060493,
        "meta_inclination": 54.1004,
        "meta_ra_of_asc_node": 306.084,
        "meta_arg_of_pericenter": 24.1688,
        "meta_mean_anomaly": 335.8571,
        "meta_ephemeris_type": 0,
        "meta_classification_type": "U",
        "meta_norad_cat_id": 44793,
        "meta_element_set_no": 999,
        "meta_rev_at_epoch": 4133,
        "meta_bstar": 0,
        "meta_mean_motion_dot": -6.2e-07,
        "meta_mean_motion_ddot": 0,
        "tle_line1": "1 44793U 19078A   25355.35029571 -.00000062  00000+0  00000+0 0  9991",
        "tle_line2": "2 44793  54.1004 306.0840 0006049  24.1688 335.8571  1.86232186 41332"
      },
      "geometry": {
        "type": "Point",
        "coordinates": [
          -64.1228133673798,
          -13.70961468935309
        ]
      }
    }
  ]
}